0 IRIDIUM 33 DEB
1 34825U 97051LZ  13282.53615289  .00004500  00000-0  14770-2 0  9652
2 34825 086.3799 128.8870 0016694 296.5145 092.4647 14.38089872239150
0 IRIDIUM 33 DEB
1 34825U 97051LZ  13284.02148105  .00004810  00000-0  15792-2 0  9666
2 34825 086.3799 128.2595 0016565 291.1907 222.6488 14.38095389239365
0 IRIDIUM 33 DEB
1 34825U 97051LZ  13286.29893117  .00004072  00000-0  13357-2 0  9684
2 34825 086.3797 127.2974 0016419 283.2186 133.9048 14.38111978239697
0 IRIDIUM 33 DEB
1 34825U 97051LZ  13287.55276067  .00004765  00000-0  15635-2 0  9694
2 34825 086.3792 126.7676 0016325 278.6416 145.7194 14.38121407239876
0 IRIDIUM 33 DEB
1 34825U 97051LZ  13289.29183559  .00006090  00000-0  19989-2 0  9701
2 34825 086.3787 126.0326 0016296 272.1878 150.1452 14.38141492240126
0 IRIDIUM 33 DEB
1 34825U 97051LZ  13291.51789124  .00005621  00000-0  18439-2 0  9718
2 34825 086.3790 125.0923 0016216 264.0535 156.0430 14.38163144240448
0 IRIDIUM 33 DEB
1 34825U 97051LZ  13293.75644931  .00005974  00000-0  19590-2 0  9723
2 34825 086.3787 124.1460 0016260 255.7437 226.9804 14.38182937240765
0 IRIDIUM 33 DEB
1 34825U 97051LZ  13295.77520590  .00006941  00000-0  22760-2 0  9730
2 34825 086.3792 123.2925 0016292 248.4533 239.7567 14.38203052241051
